[
    {
        "OBJECT_NAME": "SHENZHOU-22",
        "OBJECT_ID": "2025-272A",
        "EPOCH": "2025-12-06T21:14:35.052288",
        "MEAN_MOTION": 15.58811356,
        "ECCENTRICITY": 0.00094534,
        "INCLINATION": 41.4683,
        "RA_OF_ASC_NODE": 52.2413,
        "ARG_OF_PERICENTER": 344.5349,
        "MEAN_ANOMALY": 15.5199,
        "EPHEMERIS_TYPE": 0,
        "CLASSIFICATION_TYPE": "U",
        "NORAD_CAT_ID": 66645,
        "ELEMENT_SET_NO": 999,
        "REV_AT_EPOCH": 26300,
        "BSTAR": 0.00035334049,
        "MEAN_MOTION_DOT": 0.00027906,
        "MEAN_MOTION_DDOT": 0
    },
    {
        "OBJECT_NAME": "CZ-2F R/B",
        "OBJECT_ID": "2025-272B",
        "EPOCH": "2025-12-06T20:55:41.021184",
        "MEAN_MOTION": 16.34691308,
        "ECCENTRICITY": 0.0038093,
        "INCLINATION": 41.4537,
        "RA_OF_ASC_NODE": 46.5611,
        "ARG_OF_PERICENTER": 222.6714,
        "MEAN_ANOMALY": 137.119,
        "EPHEMERIS_TYPE": 0,
        "CLASSIFICATION_TYPE": "U",
        "NORAD_CAT_ID": 66646,
        "ELEMENT_SET_NO": 999,
        "REV_AT_EPOCH": 189,
        "BSTAR": 0.00045837,
        "MEAN_MOTION_DOT": 0.04803871,
        "MEAN_MOTION_DDOT": 7.8554e-06
    },
    {
        "OBJECT_NAME": "SOYUZ-MS 28",
        "OBJECT_ID": "2025-275A",
        "EPOCH": "2025-12-06T20:46:13.238400",
        "MEAN_MOTION": 15.49374779,
        "ECCENTRICITY": 0.00034973,
        "INCLINATION": 51.6304,
        "RA_OF_ASC_NODE": 171.5636,
        "ARG_OF_PERICENTER": 213.1314,
        "MEAN_ANOMALY": 146.9456,
        "EPHEMERIS_TYPE": 0,
        "CLASSIFICATION_TYPE": "U",
        "NORAD_CAT_ID": 66664,
        "ELEMENT_SET_NO": 999,
        "REV_AT_EPOCH": 128,
        "BSTAR": 0.00025393652,
        "MEAN_MOTION_DOT": 0.0001375,
        "MEAN_MOTION_DDOT": 0
    },
    {
        "OBJECT_NAME": "1998-067XS",
        "OBJECT_ID": "1998-067XS",
        "EPOCH": "2025-12-06T22:16:16.867200",
        "MEAN_MOTION": 15.50144102,
        "ECCENTRICITY": 0.00041468,
        "INCLINATION": 51.6299,
        "RA_OF_ASC_NODE": 171.2315,
        "ARG_OF_PERICENTER": 177.6061,
        "MEAN_ANOMALY": 182.4948,
        "EPHEMERIS_TYPE": 0,
        "CLASSIFICATION_TYPE": "U",
        "NORAD_CAT_ID": 66906,
        "ELEMENT_SET_NO": 999,
        "REV_AT_EPOCH": 71,
        "BSTAR": 0.00061899955,
        "MEAN_MOTION_DOT": 0.00035216,
        "MEAN_MOTION_DDOT": 0
    },
    {
        "OBJECT_NAME": "1998-067XT",
        "OBJECT_ID": "1998-067XT",
        "EPOCH": "2025-12-06T22:15:35.290656",
        "MEAN_MOTION": 15.50498848,
        "ECCENTRICITY": 0.00052114,
        "INCLINATION": 51.6299,
        "RA_OF_ASC_NODE": 171.2284,
        "ARG_OF_PERICENTER": 194.7186,
        "MEAN_ANOMALY": 165.3652,
        "EPHEMERIS_TYPE": 0,
        "CLASSIFICATION_TYPE": "U",
        "NORAD_CAT_ID": 66907,
        "ELEMENT_SET_NO": 999,
        "REV_AT_EPOCH": 71,
        "BSTAR": 0.001226899,
        "MEAN_MOTION_DOT": 0.00071486,
        "MEAN_MOTION_DDOT": 0
    },
    {
        "OBJECT_NAME": "1998-067XU",
        "OBJECT_ID": "1998-067XU",
        "EPOCH": "2025-12-06T22:15:23.816736",
        "MEAN_MOTION": 15.50551079,
        "ECCENTRICITY": 0.00054036,
        "INCLINATION": 51.6296,
        "RA_OF_ASC_NODE": 171.2272,
        "ARG_OF_PERICENTER": 194.2976,
        "MEAN_ANOMALY": 165.7861,
        "EPHEMERIS_TYPE": 0,
        "CLASSIFICATION_TYPE": "U",
        "NORAD_CAT_ID": 66908,
        "ELEMENT_SET_NO": 999,
        "REV_AT_EPOCH": 71,
        "BSTAR": 0.0011470427,
        "MEAN_MOTION_DOT": 0.00066891,
        "MEAN_MOTION_DDOT": 0
    },
    {
        "OBJECT_NAME": "1998-067XV",
        "OBJECT_ID": "1998-067XV",
        "EPOCH": "2025-12-06T22:15:20.702880",
        "MEAN_MOTION": 15.50597561,
        "ECCENTRICITY": 0.000527,
        "INCLINATION": 51.6296,
        "RA_OF_ASC_NODE": 171.2269,
        "ARG_OF_PERICENTER": 195.203,
        "MEAN_ANOMALY": 164.8802,
        "EPHEMERIS_TYPE": 0,
        "CLASSIFICATION_TYPE": "U",
        "NORAD_CAT_ID": 66909,
        "ELEMENT_SET_NO": 999,
        "REV_AT_EPOCH": 71,
        "BSTAR": 0.0013781016,
        "MEAN_MOTION_DOT": 0.00080732,
        "MEAN_MOTION_DDOT": 0
    },
    {
        "OBJECT_NAME": "1998-067XW",
        "OBJECT_ID": "1998-067XW",
        "EPOCH": "2025-12-06T22:14:11.406624",
        "MEAN_MOTION": 15.50834076,
        "ECCENTRICITY": 0.00061612,
        "INCLINATION": 51.6295,
        "RA_OF_ASC_NODE": 171.2216,
        "ARG_OF_PERICENTER": 180.8315,
        "MEAN_ANOMALY": 179.2665,
        "EPHEMERIS_TYPE": 0,
        "CLASSIFICATION_TYPE": "U",
        "NORAD_CAT_ID": 66910,
        "ELEMENT_SET_NO": 999,
        "REV_AT_EPOCH": 71,
        "BSTAR": 0.001191381,
        "MEAN_MOTION_DOT": 0.00070242,
        "MEAN_MOTION_DDOT": 0
    },
    {
        "OBJECT_NAME": "1998-067XX",
        "OBJECT_ID": "1998-067XX",
        "EPOCH": "2025-12-06T22:14:02.509152",
        "MEAN_MOTION": 15.50921454,
        "ECCENTRICITY": 0.00060774,
        "INCLINATION": 51.6294,
        "RA_OF_ASC_NODE": 171.2209,
        "ARG_OF_PERICENTER": 181.4841,
        "MEAN_ANOMALY": 178.6131,
        "EPHEMERIS_TYPE": 0,
        "CLASSIFICATION_TYPE": "U",
        "NORAD_CAT_ID": 66911,
        "ELEMENT_SET_NO": 999,
        "REV_AT_EPOCH": 70,
        "BSTAR": 0.0013962255,
        "MEAN_MOTION_DOT": 0.00082787,
        "MEAN_MOTION_DDOT": 0
    },
    {
        "OBJECT_NAME": "1998-067XY",
        "OBJECT_ID": "1998-067XY",
        "EPOCH": "2025-12-06T19:10:11.930016",
        "MEAN_MOTION": 15.50363521,
        "ECCENTRICITY": 0.00052356,
        "INCLINATION": 51.6299,
        "RA_OF_ASC_NODE": 171.8684,
        "ARG_OF_PERICENTER": 194.0341,
        "MEAN_ANOMALY": 166.0503,
        "EPHEMERIS_TYPE": 0,
        "CLASSIFICATION_TYPE": "U",
        "NORAD_CAT_ID": 66912,
        "ELEMENT_SET_NO": 999,
        "REV_AT_EPOCH": 68,
        "BSTAR": 0.0011553511,
        "MEAN_MOTION_DOT": 0.00066928,
        "MEAN_MOTION_DDOT": 0
    }
]